[{"OBJECT_NAME":"STARLINK-35287","OBJECT_ID":"2025-216W","EPOCH":"2026-03-09T22:00:17.840160","MEAN_MOTION":15.30221552,"ECCENTRICITY":5.566e-5,"INCLINATION":53.1624,"RA_OF_ASC_NODE":331.4571,"ARG_OF_PERICENTER":58.7843,"MEAN_ANOMALY":301.3212,"EPHEMERIS_TYPE":0,"CLASSIFICATION_TYPE":"U","NORAD_CAT_ID":65754,"ELEMENT_SET_NO":999,"REV_AT_EPOCH":2654,"BSTAR":0.00095028028,"MEAN_MOTION_DOT":0.0002791,"MEAN_MOTION_DDOT":0},{"OBJECT_NAME":"OBJECT H","OBJECT_ID":"2022-023H","EPOCH":"2026-03-09T22:57:41.313888","MEAN_MOTION":15.21889274,"ECCENTRICITY":0.00933376,"INCLINATION":63.6345,"RA_OF_ASC_NODE":356.5929,"ARG_OF_PERICENTER":305.1945,"MEAN_ANOMALY":54.0457,"EPHEMERIS_TYPE":0,"CLASSIFICATION_TYPE":"U","NORAD_CAT_ID":51953,"ELEMENT_SET_NO":999,"REV_AT_EPOCH":22114,"BSTAR":0.00043867493,"MEAN_MOTION_DOT":0.00011084,"MEAN_MOTION_DDOT":0}]
